1 27424U 02022A   11257.01358168  .00000512  00000-0  12360-3 0   638
2 27424 098.2012 196.3769 0001302 087.3114 272.8254 14.57107066498002